CCSDS_OMM_VERS = 2.0
CREATION_DATE  = 
ORIGINATOR     = 

OBJECT_NAME    = STARLINK-35538
OBJECT_ID      = 2025-262V
CENTER_NAME    = EARTH
REF_FRAME      = TEME
TIME_SYSTEM    = UTC
MEAN_ELEMENT_THEORY = SGP/SGP4

EPOCH          = 2025-12-06T14:00:01.999872
MEAN_MOTION    = 15.50590980
ECCENTRICITY   = .00014511
INCLINATION    = 43.0004
RA_OF_ASC_NODE = 107.0436
ARG_OF_PERICENTER = 269.0920
MEAN_ANOMALY   = 269.6450

EPHEMERIS_TYPE = 0
CLASSIFICATION_TYPE = U
NORAD_CAT_ID   = 66475
ELEMENT_SET_NO = 999
REV_AT_EPOCH   = 464
BSTAR          = -.96528521E-3
MEAN_MOTION_DOT = -.56586E-3
MEAN_MOTION_DDOT = 0

CCSDS_OMM_VERS = 2.0
CREATION_DATE  = 
ORIGINATOR     = 

OBJECT_NAME    = STARLINK-35372
OBJECT_ID      = 2025-262W
CENTER_NAME    = EARTH
REF_FRAME      = TEME
TIME_SYSTEM    = UTC
MEAN_ELEMENT_THEORY = SGP/SGP4

EPOCH          = 2025-12-06T14:00:01.999872
MEAN_MOTION    = 15.50621308
ECCENTRICITY   = .00013649
INCLINATION    = 43.0005
RA_OF_ASC_NODE = 107.0389
ARG_OF_PERICENTER = 268.6717
MEAN_ANOMALY   = 271.9814

EPHEMERIS_TYPE = 0
CLASSIFICATION_TYPE = U
NORAD_CAT_ID   = 66476
ELEMENT_SET_NO = 999
REV_AT_EPOCH   = 454
BSTAR          = -.2252147E-2
MEAN_MOTION_DOT = -.130482E-2
MEAN_MOTION_DDOT = 0

CCSDS_OMM_VERS = 2.0
CREATION_DATE  = 
ORIGINATOR     = 

OBJECT_NAME    = STARLINK-35354
OBJECT_ID      = 2025-262X
CENTER_NAME    = EARTH
REF_FRAME      = TEME
TIME_SYSTEM    = UTC
MEAN_ELEMENT_THEORY = SGP/SGP4

EPOCH          = 2025-12-06T14:00:01.999872
MEAN_MOTION    = 15.50616737
ECCENTRICITY   = .00011796
INCLINATION    = 43.0005
RA_OF_ASC_NODE = 107.0282
ARG_OF_PERICENTER = 275.1573
MEAN_ANOMALY   = 269.3273

EPHEMERIS_TYPE = 0
CLASSIFICATION_TYPE = U
NORAD_CAT_ID   = 66477
ELEMENT_SET_NO = 999
REV_AT_EPOCH   = 464
BSTAR          = -.20828271E-2
MEAN_MOTION_DOT = -.120823E-2
MEAN_MOTION_DDOT = 0

CCSDS_OMM_VERS = 2.0
CREATION_DATE  = 
ORIGINATOR     = 

OBJECT_NAME    = STARLINK-35283
OBJECT_ID      = 2025-262Y
CENTER_NAME    = EARTH
REF_FRAME      = TEME
TIME_SYSTEM    = UTC
MEAN_ELEMENT_THEORY = SGP/SGP4

EPOCH          = 2025-12-06T14:00:01.999872
MEAN_MOTION    = 15.50626952
ECCENTRICITY   = .0001316
INCLINATION    = 43.0006
RA_OF_ASC_NODE = 107.0231
ARG_OF_PERICENTER = 270.3113
MEAN_ANOMALY   = 276.0907

EPHEMERIS_TYPE = 0
CLASSIFICATION_TYPE = U
NORAD_CAT_ID   = 66478
ELEMENT_SET_NO = 999
REV_AT_EPOCH   = 464
BSTAR          = -.24326605E-2
MEAN_MOTION_DOT = -.140757E-2
MEAN_MOTION_DDOT = 0

CCSDS_OMM_VERS = 2.0
CREATION_DATE  = 
ORIGINATOR     = 

OBJECT_NAME    = STARLINK-35581
OBJECT_ID      = 2025-262Z
CENTER_NAME    = EARTH
REF_FRAME      = TEME
TIME_SYSTEM    = UTC
MEAN_ELEMENT_THEORY = SGP/SGP4

EPOCH          = 2025-12-06T14:00:01.999872
MEAN_MOTION    = 15.50624261
ECCENTRICITY   = .0001135
INCLINATION    = 43.0006
RA_OF_ASC_NODE = 107.0328
ARG_OF_PERICENTER = 268.7461
MEAN_ANOMALY   = 273.8227

EPHEMERIS_TYPE = 0
CLASSIFICATION_TYPE = U
NORAD_CAT_ID   = 66479
ELEMENT_SET_NO = 999
REV_AT_EPOCH   = 464
BSTAR          = -.23109307E-2
MEAN_MOTION_DOT = -.133833E-2
MEAN_MOTION_DDOT = 0

CCSDS_OMM_VERS = 2.0
CREATION_DATE  = 
ORIGINATOR     = 

OBJECT_NAME    = STARLINK-35670
OBJECT_ID      = 2025-262AA
CENTER_NAME    = EARTH
REF_FRAME      = TEME
TIME_SYSTEM    = UTC
MEAN_ELEMENT_THEORY = SGP/SGP4

EPOCH          = 2025-12-06T14:00:01.999872
MEAN_MOTION    = 15.50592684
ECCENTRICITY   = .00012782
INCLINATION    = 43.0004
RA_OF_ASC_NODE = 107.0176
ARG_OF_PERICENTER = 274.2918
MEAN_ANOMALY   = 274.0383

EPHEMERIS_TYPE = 0
CLASSIFICATION_TYPE = U
NORAD_CAT_ID   = 66480
ELEMENT_SET_NO = 999
REV_AT_EPOCH   = 464
BSTAR          = -.14620755E-2
MEAN_MOTION_DOT = -.85227E-3
MEAN_MOTION_DDOT = 0

CCSDS_OMM_VERS = 2.0
CREATION_DATE  = 
ORIGINATOR     = 

OBJECT_NAME    = STARLINK-35698
OBJECT_ID      = 2025-262AB
CENTER_NAME    = EARTH
REF_FRAME      = TEME
TIME_SYSTEM    = UTC
MEAN_ELEMENT_THEORY = SGP/SGP4

EPOCH          = 2025-12-06T14:00:01.999872
MEAN_MOTION    = 15.50626673
ECCENTRICITY   = .0001215
INCLINATION    = 43.0006
RA_OF_ASC_NODE = 107.0129
ARG_OF_PERICENTER = 269.3378
MEAN_ANOMALY   = 280.9049

EPHEMERIS_TYPE = 0
CLASSIFICATION_TYPE = U
NORAD_CAT_ID   = 66481
ELEMENT_SET_NO = 999
REV_AT_EPOCH   = 464
BSTAR          = -.24693128E-2
MEAN_MOTION_DOT = -.142832E-2
MEAN_MOTION_DDOT = 0

CCSDS_OMM_VERS = 2.0
CREATION_DATE  = 
ORIGINATOR     = 

OBJECT_NAME    = STARLINK-35648
OBJECT_ID      = 2025-262AC
CENTER_NAME    = EARTH
REF_FRAME      = TEME
TIME_SYSTEM    = UTC
MEAN_ELEMENT_THEORY = SGP/SGP4

EPOCH          = 2025-12-06T14:00:01.999872
MEAN_MOTION    = 15.50636044
ECCENTRICITY   = .00012572
INCLINATION    = 43.0006
RA_OF_ASC_NODE = 107.0084
ARG_OF_PERICENTER = 269.8489
MEAN_ANOMALY   = 282.3067

EPHEMERIS_TYPE = 0
CLASSIFICATION_TYPE = U
NORAD_CAT_ID   = 66482
ELEMENT_SET_NO = 999
REV_AT_EPOCH   = 449
BSTAR          = -.26811426E-2
MEAN_MOTION_DOT = -.154872E-2
MEAN_MOTION_DDOT = 0

CCSDS_OMM_VERS = 2.0
CREATION_DATE  = 
ORIGINATOR     = 

OBJECT_NAME    = STARLINK-35654
OBJECT_ID      = 2025-262AD
CENTER_NAME    = EARTH
REF_FRAME      = TEME
TIME_SYSTEM    = UTC
MEAN_ELEMENT_THEORY = SGP/SGP4

EPOCH          = 2025-12-06T14:00:01.999872
MEAN_MOTION    = 15.50618836
ECCENTRICITY   = .00010761
INCLINATION    = 43.0007
RA_OF_ASC_NODE = 107.0024
ARG_OF_PERICENTER = 273.0970
MEAN_ANOMALY   = 280.9794

EPHEMERIS_TYPE = 0
CLASSIFICATION_TYPE = U
NORAD_CAT_ID   = 66483
ELEMENT_SET_NO = 999
REV_AT_EPOCH   = 464
BSTAR          = -.215535E-2
MEAN_MOTION_DOT = -.124961E-2
MEAN_MOTION_DDOT = 0

CCSDS_OMM_VERS = 2.0
CREATION_DATE  = 
ORIGINATOR     = 

OBJECT_NAME    = STARLINK-35371
OBJECT_ID      = 2025-262AE
CENTER_NAME    = EARTH
REF_FRAME      = TEME
TIME_SYSTEM    = UTC
MEAN_ELEMENT_THEORY = SGP/SGP4

EPOCH          = 2025-12-06T14:00:01.999872
MEAN_MOTION    = 15.50577002
ECCENTRICITY   = .00015189
INCLINATION    = 43.0003
RA_OF_ASC_NODE = 106.9986
ARG_OF_PERICENTER = 273.7498
MEAN_ANOMALY   = 282.2461

EPHEMERIS_TYPE = 0
CLASSIFICATION_TYPE = U
NORAD_CAT_ID   = 66484
ELEMENT_SET_NO = 999
REV_AT_EPOCH   = 464
BSTAR          = -.65540512E-3
MEAN_MOTION_DOT = -.38599E-3
MEAN_MOTION_DDOT = 0

CCSDS_OMM_VERS = 2.0
CREATION_DATE  = 
ORIGINATOR     = 

OBJECT_NAME    = STARLINK-34774
OBJECT_ID      = 2025-263A
CENTER_NAME    = EARTH
REF_FRAME      = TEME
TIME_SYSTEM    = UTC
MEAN_ELEMENT_THEORY = SGP/SGP4

EPOCH          = 2025-12-06T14:00:01.999872
MEAN_MOTION    = 15.58014397
ECCENTRICITY   = .00015437
INCLINATION    = 42.9995
RA_OF_ASC_NODE = 161.2307
ARG_OF_PERICENTER = 271.1281
MEAN_ANOMALY   = 142.2719

EPHEMERIS_TYPE = 0
CLASSIFICATION_TYPE = U
NORAD_CAT_ID   = 66485
ELEMENT_SET_NO = 999
REV_AT_EPOCH   = 464
BSTAR          = -.3088475E-1
MEAN_MOTION_DOT = -.211638E-1
MEAN_MOTION_DDOT = 0

CCSDS_OMM_VERS = 2.0
CREATION_DATE  = 
ORIGINATOR     = 

OBJECT_NAME    = STARLINK-34844
OBJECT_ID      = 2025-263B
CENTER_NAME    = EARTH
REF_FRAME      = TEME
TIME_SYSTEM    = UTC
MEAN_ELEMENT_THEORY = SGP/SGP4

EPOCH          = 2025-12-06T14:00:01.999872
MEAN_MOTION    = 15.58009700
ECCENTRICITY   = .00016315
INCLINATION    = 42.9998
RA_OF_ASC_NODE = 161.2249
ARG_OF_PERICENTER = 269.6645
MEAN_ANOMALY   = 145.6529

EPHEMERIS_TYPE = 0
CLASSIFICATION_TYPE = U
NORAD_CAT_ID   = 66486
ELEMENT_SET_NO = 999
REV_AT_EPOCH   = 459
BSTAR          = -.30767939E-1
MEAN_MOTION_DOT = -.2108982E-1
MEAN_MOTION_DDOT = 0

