STARLINK-35538          
1 66475U 25262V   25340.58335648 -.00056586  00000+0 -96529-3 0  9996
2 66475  43.0004 107.0436 0001451 269.0920 269.6450 15.50590980  4649
STARLINK-35372          
1 66476U 25262W   25340.58335648 -.00130482  00000+0 -22521-2 0  9995
2 66476  43.0005 107.0389 0001364 268.6717 271.9814 15.50621308  4548
STARLINK-35354          
1 66477U 25262X   25340.58335648 -.00120823  00000+0 -20828-2 0  9992
2 66477  43.0005 107.0282 0001179 275.1573 269.3273 15.50616737  4649
STARLINK-35283          
1 66478U 25262Y   25340.58335648 -.00140757  00000+0 -24327-2 0  9999
2 66478  43.0006 107.0231 0001316 270.3113 276.0907 15.50626952  4644
STARLINK-35581          
1 66479U 25262Z   25340.58335648 -.00133833  00000+0 -23109-2 0  9994
2 66479  43.0006 107.0328 0001135 268.7461 273.8227 15.50624261  4649
STARLINK-35670          
1 66480U 25262AA  25340.58335648 -.00085227  00000+0 -14621-2 0  9998
2 66480  43.0004 107.0176 0001278 274.2918 274.0383 15.50592684  4646
STARLINK-35698          
1 66481U 25262AB  25340.58335648 -.00142832  00000+0 -24693-2 0  9995
2 66481  43.0006 107.0129 0001215 269.3378 280.9049 15.50626673  4644
STARLINK-35648          
1 66482U 25262AC  25340.58335648 -.00154872  00000+0 -26811-2 0  9997
2 66482  43.0006 107.0084 0001257 269.8489 282.3067 15.50636044  4491
STARLINK-35654          
1 66483U 25262AD  25340.58335648 -.00124961  00000+0 -21553-2 0  9992
2 66483  43.0007 107.0024 0001076 273.0970 280.9794 15.50618836  4645
STARLINK-35371          
1 66484U 25262AE  25340.58335648 -.00038599  00000+0 -65541-3 0  9990
2 66484  43.0003 106.9986 0001518 273.7498 282.2461 15.50577002  4645
STARLINK-34774          
1 66485U 25263A   25340.58335648 -.02116380  00000+0 -30885-1 0  9990
2 66485  42.9995 161.2307 0001543 271.1281 142.2719 15.58014397  4647
STARLINK-34844          
1 66486U 25263B   25340.58335648 -.02108982  00000+0 -30768-1 0  9990
2 66486  42.9998 161.2249 0001631 269.6645 145.6529 15.58009700  4592
